KUIPER-00095            
1 65134U 25171C   25354.58336806 -.00027839  00000+0 -24538-2 0  9997
2 65134  51.8900 139.8580 0004924 216.2574 114.5891 14.95816517  5689
KUIPER-00096            
1 65135U 25171D   25354.59996505  .00012651  00000+0  16852-2 0  9991
2 65135  51.8997 147.8218 0010504 240.7227 119.2686 14.79907397 21187
KUIPER-00097            
1 65136U 25171E   25354.59715208  .00002134  00000+0  30889-3 0  9993
2 65136  51.9018 150.4461 0009660 246.4493 113.5454 14.79935623 21130
KUIPER-00098            
1 65137U 25171F   25353.71661024 -.00011723  00000+0 -15132-2 0  9992
2 65137  51.8981 156.7273 0007660 221.3928 138.6455 14.79858376 20320
KUIPER-00099            
1 65138U 25171G   25354.58336806 -.00030004  00000+0 -39276-2 0  9994
2 65138  51.9009 142.8595 0001147 118.7764 304.7528 14.79897113  5138
KUIPER-00100            
1 65139U 25171H   25354.58336806 -.00027216  00000+0 -32135-2 0  9993
2 65139  51.8990 140.3665 0001071 323.3297 258.0693 14.84126404  4978
KUIPER-00102            
1 65140U 25171J   25354.58336806 -.00077433  00000+0 -10457-1 0  9993
2 65140  51.8971 142.8481 0000986 131.8960 136.9824 14.79074273  5055
KUIPER-00103            
1 65141U 25171K   25353.87738299  .00001928  00000+0  28210-3 0  9999
2 65141  51.8973 163.5084 0005677 219.5218 140.5331 14.79904548 20899
